{
  "type": "FeatureCollection",
  "features": [
    {
      "type": "Feature",
      "properties": {
        "norad_id": 37530,
        "name": "COSMOS 2251 DEB",
        "group": "cosmos-2251-debris",
        "lat": 73.96126420206726,
        "lon": 84.64031157696853,
        "alt_km": 754.7284731673099,
        "timestamp": "2025-12-04T03:47:54.939826+00:00",
        "meta_object_name": "COSMOS 2251 DEB",
        "meta_object_id": "1993-036BNK",
        "meta_epoch": "2025-11-30T19:50:14.646624",
        "meta_mean_motion": 14.34478642,
        "meta_eccentricity": 0.00255427,
        "meta_inclination": 74.0356,
        "meta_ra_of_asc_node": 355.4602,
        "meta_arg_of_pericenter": 61.4891,
        "meta_mean_anomaly": 111.2815,
        "meta_ephemeris_type": 0,
        "meta_classification_type": "U",
        "meta_norad_cat_id": 37530,
        "meta_element_set_no": 999,
        "meta_rev_at_epoch": 85061,
        "meta_bstar": 0.00021143929,
        "meta_mean_motion_dot": 5.72e-06,
        "meta_mean_motion_ddot": 0,
        "tle_line1": "1 37530U 93036BNK 25334.82655841  .00000572  00000+0  21144-3 0  9993",
        "tle_line2": "2 37530  74.0356 355.4602 0025542  61.4891 111.2815 14.34478642850619"
      },
      "geometry": {
        "type": "Point",
        "coordinates": [
          84.64031157696853,
          73.96126420206726
        ]
      }
    },
    {
      "type": "Feature",
      "properties": {
        "norad_id": 37532,
        "name": "COSMOS 2251 DEB",
        "group": "cosmos-2251-debris",
        "lat": -12.005408648866542,
        "lon": -131.86305656208205,
        "alt_km": 743.8450105090578,
        "timestamp": "2025-12-04T03:47:54.939836+00:00",
        "meta_object_name": "COSMOS 2251 DEB",
        "meta_object_id": "1993-036BNM",
        "meta_epoch": "2025-12-02T23:37:55.500096",
        "meta_mean_motion": 14.4238225,
        "meta_eccentricity": 0.00156756,
        "meta_inclination": 74.0505,
        "meta_ra_of_asc_node": 233.7976,
        "meta_arg_of_pericenter": 335.7247,
        "meta_mean_anomaly": 40.2834,
        "meta_ephemeris_type": 0,
        "meta_classification_type": "U",
        "meta_norad_cat_id": 37532,
        "meta_element_set_no": 999,
        "meta_rev_at_epoch": 84775,
        "meta_bstar": 0.00031017071,
        "meta_mean_motion_dot": 1e-05,
        "meta_mean_motion_ddot": 0,
        "tle_line1": "1 37532U 93036BNM 25336.98467014  .00001000  00000+0  31017-3 0  9994",
        "tle_line2": "2 37532  74.0505 233.7976 0015675 335.7247  40.2834 14.42382250847758"
      },
      "geometry": {
        "type": "Point",
        "coordinates": [
          -131.86305656208205,
          -12.005408648866542
        ]
      }
    },
    {
      "type": "Feature",
      "properties": {
        "norad_id": 37533,
        "name": "COSMOS 2251 DEB",
        "group": "cosmos-2251-debris",
        "lat": -61.19866893169905,
        "lon": 175.63147584943897,
        "alt_km": 758.2460200891674,
        "timestamp": "2025-12-04T03:47:54.939846+00:00",
        "meta_object_name": "COSMOS 2251 DEB",
        "meta_object_id": "1993-036BNN",
        "meta_epoch": "2025-12-03T09:24:05.948064",
        "meta_mean_motion": 14.12090426,
        "meta_eccentricity": 0.0158489,
        "meta_inclination": 74.0692,
        "meta_ra_of_asc_node": 208.2815,
        "meta_arg_of_pericenter": 267.0153,
        "meta_mean_anomaly": 91.2841,
        "meta_ephemeris_type": 0,
        "meta_classification_type": "U",
        "meta_norad_cat_id": 37533,
        "meta_element_set_no": 999,
        "meta_rev_at_epoch": 62789,
        "meta_bstar": 0.0018532,
        "meta_mean_motion_dot": 3.801e-05,
        "meta_mean_motion_ddot": 0,
        "tle_line1": "1 37533U 93036BNN 25337.39173551  .00003801  00000+0  18532-2 0  9998",
        "tle_line2": "2 37533  74.0692 208.2815 0158489 267.0153  91.2841 14.12090426627892"
      },
      "geometry": {
        "type": "Point",
        "coordinates": [
          175.63147584943897,
          -61.19866893169905
        ]
      }
    },
    {
      "type": "Feature",
      "properties": {
        "norad_id": 37535,
        "name": "COSMOS 2251 DEB",
        "group": "cosmos-2251-debris",
        "lat": -44.916206487321084,
        "lon": -73.55519116832842,
        "alt_km": 684.9115703649186,
        "timestamp": "2025-12-04T03:47:54.939856+00:00",
        "meta_object_name": "COSMOS 2251 DEB",
        "meta_object_id": "1993-036BNQ",
        "meta_epoch": "2025-12-02T18:23:39.005088",
        "meta_mean_motion": 14.5832597,
        "meta_eccentricity": 0.00282789,
        "meta_inclination": 74.0242,
        "meta_ra_of_asc_node": 92.4973,
        "meta_arg_of_pericenter": 232.6434,
        "meta_mean_anomaly": 250.324,
        "meta_ephemeris_type": 0,
        "meta_classification_type": "U",
        "meta_norad_cat_id": 37535,
        "meta_element_set_no": 999,
        "meta_rev_at_epoch": 85179,
        "meta_bstar": 0.0012367848,
        "meta_mean_motion_dot": 5.729e-05,
        "meta_mean_motion_ddot": 0,
        "tle_line1": "1 37535U 93036BNQ 25336.76642367  .00005729  00000+0  12368-2 0  9998",
        "tle_line2": "2 37535  74.0242  92.4973 0028278 232.6434 250.3240 14.58325970851799"
      },
      "geometry": {
        "type": "Point",
        "coordinates": [
          -73.55519116832842,
          -44.916206487321084
        ]
      }
    },
    {
      "type": "Feature",
      "properties": {
        "norad_id": 37537,
        "name": "COSMOS 2251 DEB",
        "group": "cosmos-2251-debris",
        "lat": -16.151551173768787,
        "lon": -83.8199894986235,
        "alt_km": 765.0719227279951,
        "timestamp": "2025-12-04T03:47:54.939866+00:00",
        "meta_object_name": "COSMOS 2251 DEB",
        "meta_object_id": "1993-036BNS",
        "meta_epoch": "2025-12-03T02:49:20.436096",
        "meta_mean_motion": 14.37467313,
        "meta_eccentricity": 0.00499683,
        "meta_inclination": 74.0121,
        "meta_ra_of_asc_node": 282.86,
        "meta_arg_of_pericenter": 65.6493,
        "meta_mean_anomaly": 294.9866,
        "meta_ephemeris_type": 0,
        "meta_classification_type": "U",
        "meta_norad_cat_id": 37537,
        "meta_element_set_no": 999,
        "meta_rev_at_epoch": 84895,
        "meta_bstar": 0.00030991104,
        "meta_mean_motion_dot": 9.15e-06,
        "meta_mean_motion_ddot": 0,
        "tle_line1": "1 37537U 93036BNS 25337.11759764  .00000915  00000+0  30991-3 0  9995",
        "tle_line2": "2 37537  74.0121 282.8600 0049968  65.6493 294.9866 14.37467313848954"
      },
      "geometry": {
        "type": "Point",
        "coordinates": [
          -83.8199894986235,
          -16.151551173768787
        ]
      }
    },
    {
      "type": "Feature",
      "properties": {
        "norad_id": 37546,
        "name": "COSMOS 2251 DEB",
        "group": "cosmos-2251-debris",
        "lat": -2.6997483053716476,
        "lon": -64.29793131413236,
        "alt_km": 629.0337120107106,
        "timestamp": "2025-12-04T03:47:54.939876+00:00",
        "meta_object_name": "COSMOS 2251 DEB",
        "meta_object_id": "1993-036BPB",
        "meta_epoch": "2025-12-03T09:07:46.153056",
        "meta_mean_motion": 14.79857729,
        "meta_eccentricity": 0.0006823,
        "meta_inclination": 74.0211,
        "meta_ra_of_asc_node": 116.4605,
        "meta_arg_of_pericenter": 143.2532,
        "meta_mean_anomaly": 216.9114,
        "meta_ephemeris_type": 0,
        "meta_classification_type": "U",
        "meta_norad_cat_id": 37546,
        "meta_element_set_no": 999,
        "meta_rev_at_epoch": 65749,
        "meta_bstar": 0.0038864,
        "meta_mean_motion_dot": 0.00029412,
        "meta_mean_motion_ddot": 0,
        "tle_line1": "1 37546U 93036BPB 25337.38039529  .00029412  00000+0  38864-2 0  9993",
        "tle_line2": "2 37546  74.0211 116.4605 0006823 143.2532 216.9114 14.79857729657498"
      },
      "geometry": {
        "type": "Point",
        "coordinates": [
          -64.29793131413236,
          -2.6997483053716476
        ]
      }
    },
    {
      "type": "Feature",
      "properties": {
        "norad_id": 37959,
        "name": "COSMOS 2251 DEB",
        "group": "cosmos-2251-debris",
        "lat": -18.736316928062607,
        "lon": 67.7153439497903,
        "alt_km": 726.5181593627631,
        "timestamp": "2025-12-04T03:47:54.939886+00:00",
        "meta_object_name": "COSMOS 2251 DEB",
        "meta_object_id": "1993-036BPJ",
        "meta_epoch": "2025-12-03T06:37:43.731840",
        "meta_mean_motion": 14.58029421,
        "meta_eccentricity": 0.0058457,
        "meta_inclination": 74.0113,
        "meta_ra_of_asc_node": 74.9761,
        "meta_arg_of_pericenter": 219.613,
        "meta_mean_anomaly": 172.3716,
        "meta_ephemeris_type": 0,
        "meta_classification_type": "U",
        "meta_norad_cat_id": 37959,
        "meta_element_set_no": 999,
        "meta_rev_at_epoch": 79989,
        "meta_bstar": 0.0012228,
        "meta_mean_motion_dot": 5.729e-05,
        "meta_mean_motion_ddot": 0,
        "tle_line1": "1 37959U 93036BPJ 25337.27620060  .00005729  00000+0  12228-2 0  9996",
        "tle_line2": "2 37959  74.0113  74.9761 0058457 219.6130 172.3716 14.58029421799891"
      },
      "geometry": {
        "type": "Point",
        "coordinates": [
          67.7153439497903,
          -18.736316928062607
        ]
      }
    }
  ]
}